STARLINK-36157          
1 66933U 25286J   26200.17574359  .00011082  00000+0  33844-3 0  9997
2 66933  53.1580 105.8872 0001333  88.0729 272.0426 15.34418562 35578
STARLINK-36153          
1 66934U 25286K   26200.17995384  .00009881  00000+0  30323-3 0  9996
2 66934  53.1589 105.9115 0001448 100.5623 259.5542 15.34397168 35576
STARLINK-36127          
1 66935U 25286L   26200.01180652  .00013213  00000+0  40144-3 0  9990
2 66935  53.1577 106.2877 0000896 116.0748 244.0347 15.34403895 35554
STARLINK-36160          
1 66936U 25286M   26200.15049849  .00011484  00000+0  35054-3 0  9990
2 66936  53.1578 105.7288 0001293  88.0312 272.0839 15.34396730 35560
STARLINK-36165          
1 66937U 25286N   26200.03495375  .00007493  00000+0  23271-3 0  9990
2 66937  53.1568 106.4318 0001187  92.6748 267.4390 15.34394772 35551
STARLINK-36155          
1 66938U 25286P   26200.02653463  .00016741  00000+0  50549-3 0  9998
2 66938  53.1579 106.3759 0001195  97.7184 262.3954 15.34400615 35555
STARLINK-36154          
1 66939U 25286Q   26200.14838671  .00013279  00000+0  40334-3 0  9992
2 66939  53.1587 105.7127 0001671 102.7599 257.3590 15.34409459 35570
STARLINK-36121          
1 66940U 25286R   26200.16101316  .00010278  00000+0  31489-3 0  9992
2 66940  53.1577 105.7968 0001203  99.5028 260.6110 15.34402709 35571
STARLINK-36088          
1 66941U 25286S   26200.06431966  .00012451  00000+0  37901-3 0  9999
2 66941  53.1585 105.8965 0001176  76.7813 283.3321 15.34402207 35565
STARLINK-36100          
1 66942U 25286T   26200.04336771  .00005261  00000+0  16676-3 0  9993
2 66942  53.1589 106.4828 0001506  91.3290 268.7885 15.34392874 35485
STARLINK-36109          
1 66943U 25286U   26200.14628771  .00013279  00000+0  40346-3 0  9998
2 66943  53.1579 105.7010 0001321  86.1705 273.9449 15.34398853 35508
STARLINK-36112          
1 66944U 25286V   26200.00760164  .00007093  00000+0  22090-3 0  9990
2 66944  53.1595 106.2589 0001414  89.5202 270.5963 15.34394318 35557
STARLINK-36110          
1 66945U 25286W   26200.17153450  .00018170  00000+0  54753-3 0  9992
2 66945  53.1579 105.8595 0001255  94.0673 266.0473 15.34403289 35574
STARLINK-36115          
1 66946U 25286X   26200.16311731  .00009500  00000+0  29194-3 0  9998
2 66946  53.1590 105.8064 0001518 109.4529 250.6637 15.34400149 35575
STARLINK-36089          
1 66947U 25286Y   26199.98244112  .00008333  00000+0  25747-3 0  9997
2 66947  53.1589 106.8081 0001567  84.4373 275.6808 15.34400068 35541
STARLINK-36116          
1 66948U 25286Z   26200.06019924  .00013231  00000+0  40194-3 0  9997
2 66948  53.1587 106.5817 0001284  81.4534 278.6614 15.34406744 35541
STARLINK-36096          
1 66949U 25286AA  26200.00339143  .00018421  00000+0  55496-3 0  9997
2 66949  53.1596 106.2326 0001191  72.1439 287.9693 15.34402268 35550
STARLINK-36111          
1 66950U 25286AB  26200.13156048  .00010803  00000+0  33042-3 0  9993
2 66950  53.1586 105.6046 0001413  94.2390 265.8775 15.34398439 35573
STARLINK-35999          
1 66951U 25286AC  26200.03915904  .00006054  00000+0  19018-3 0  9997
2 66951  53.1577 106.4513 0001269  95.7168 264.3979 15.34397886 35553
STARLINK-36122          
1 66952U 25286AD  26200.15260044  .00009881  00000+0  30320-3 0  9999
2 66952  53.1581 105.7390 0001313  86.5140 273.6013 15.34399012 35579
HULIANWANG DIGUI-114    
1 66953U 25287A   26200.17424358  .00000032  00000+0  39957-4 0  9998
2 66953  86.4926 271.5587 0002276  96.7368 263.4025 13.24413660 29572
HULIANWANG DIGUI-115    
1 66954U 25287B   26200.24197010  .00000044  00000+0  68428-4 0  9997
2 66954  86.4942 271.5656 0002547  93.8399 266.3027 13.24401130 29585
HULIANWANG DIGUI-116    
1 66955U 25287C   26200.23468886  .00000054  00000+0  91142-4 0  9999
2 66955  86.4881 271.4262 0002352  94.6832 265.4571 13.24413311 29583
HULIANWANG DIGUI-117    
1 66956U 25287D   26200.22716742  .00000059  00000+0  10428-3 0  9998
2 66956  86.4943 271.5599 0000826  70.2617 289.8606 13.24412955 29584
HULIANWANG DIGUI-118    
1 66957U 25287E   26200.21960381  .00000055  00000+0  94038-4 0  9994
2 66957  86.4918 271.5022 0002322  96.4719 263.6680 13.24412377 29584
STARLINK-35887          
1 66959U 25288A   26200.14878554  .00004936  00000+0  18875-3 0  9995
2 66959  43.0000   0.9388 0001414 271.8146  88.2544 15.27584341 35392
STARLINK-35879          
1 66960U 25288B   26200.16292309  .00009217  00000+0  34398-3 0  9992
2 66960  43.0025   1.0413 0001518 265.9789  94.0889 15.27585697 35396
STARLINK-35761          
1 66961U 25288C   26198.82049897  .00008838  00000+0  33020-3 0  9993
2 66961  42.9993   8.1650 0001596 269.0907  90.9762 15.27589700 35195
STARLINK-35874          
1 66962U 25288D   26199.86299483  .00014688  00000+0  54226-3 0  9998
2 66962  43.0018   3.0903 0001611 274.8554  85.2113 15.27576646 35340
STARLINK-36133          
1 66963U 25288E   26200.16420677  .00000758  00000+0  37056-4 0  9992
2 66963  43.0013   1.0493 0000896 267.5605  92.5144 15.27581250 35395
