OBJECT_NAME,OBJECT_ID,EPOCH,MEAN_MOTION,ECCENTRICITY,INCLINATION,RA_OF_ASC_NODE,ARG_OF_PERICENTER,MEAN_ANOMALY,EPHEMERIS_TYPE,CLASSIFICATION_TYPE,NORAD_CAT_ID,ELEMENT_SET_NO,REV_AT_EPOCH,BSTAR,MEAN_MOTION_DOT,MEAN_MOTION_DDOT
STARLINK-36157,2025-286J,2026-07-19T04:13:04.246176,15.34418562,.00013336,53.1580,105.8872,88.0729,272.0426,0,U,66933,999,3557,.3384368E-3,.11082E-3,0
STARLINK-36153,2025-286K,2026-07-19T04:19:08.011776,15.34397168,.00014484,53.1589,105.9115,100.5623,259.5542,0,U,66934,999,3557,.30322819E-3,.9881E-4,0
STARLINK-36127,2025-286L,2026-07-19T00:17:00.083328,15.34403895,.00008964,53.1577,106.2877,116.0748,244.0347,0,U,66935,999,3555,.40144072E-3,.13213E-3,0
STARLINK-36160,2025-286M,2026-07-19T03:36:43.069536,15.34396730,.00012933,53.1578,105.7288,88.0312,272.0839,0,U,66936,999,3556,.35053836E-3,.11484E-3,0
STARLINK-36165,2025-286N,2026-07-19T00:50:20.004000,15.34394772,.00011874,53.1568,106.4318,92.6748,267.4390,0,U,66937,999,3555,.2327093E-3,.7493E-4,0
STARLINK-36155,2025-286P,2026-07-19T00:38:12.592032,15.34400615,.00011958,53.1579,106.3759,97.7184,262.3954,0,U,66938,999,3555,.50549305E-3,.16741E-3,0
STARLINK-36154,2025-286Q,2026-07-19T03:33:40.611744,15.34409459,.0001671,53.1587,105.7127,102.7599,257.3590,0,U,66939,999,3557,.40334172E-3,.13279E-3,0
STARLINK-36121,2025-286R,2026-07-19T03:51:51.537024,15.34402709,.00012035,53.1577,105.7968,99.5028,260.6110,0,U,66940,999,3557,.31488692E-3,.10278E-3,0
STARLINK-36088,2025-286S,2026-07-19T01:32:37.218624,15.34402207,.00011767,53.1585,105.8965,76.7813,283.3321,0,U,66941,999,3556,.37901014E-3,.12451E-3,0
STARLINK-36100,2025-286T,2026-07-19T01:02:26.970144,15.34392874,.00015064,53.1589,106.4828,91.3290,268.7885,0,U,66942,999,3548,.16676097E-3,.5261E-4,0
STARLINK-36109,2025-286U,2026-07-19T03:30:39.258144,15.34398853,.00013214,53.1579,105.7010,86.1705,273.9449,0,U,66943,999,3550,.40346359E-3,.13279E-3,0
STARLINK-36112,2025-286V,2026-07-19T00:10:56.781696,15.34394318,.00014141,53.1595,106.2589,89.5202,270.5963,0,U,66944,999,3555,.22089967E-3,.7093E-4,0
STARLINK-36110,2025-286W,2026-07-19T04:07:00.580800,15.34403289,.00012558,53.1579,105.8595,94.0673,266.0473,0,U,66945,999,3557,.5475342E-3,.1817E-3,0
STARLINK-36115,2025-286X,2026-07-19T03:54:53.335584,15.34400149,.00015186,53.1590,105.8064,109.4529,250.6637,0,U,66946,999,3557,.29193522E-3,.95E-4,0
STARLINK-36089,2025-286Y,2026-07-18T23:34:42.912768,15.34400068,.00015674,53.1589,106.8081,84.4373,275.6808,0,U,66947,999,3554,.25747314E-3,.8333E-4,0
STARLINK-36116,2025-286Z,2026-07-19T01:26:41.214336,15.34406744,.0001284,53.1587,106.5817,81.4534,278.6614,0,U,66948,999,3554,.4019438E-3,.13231E-3,0
STARLINK-36096,2025-286AA,2026-07-19T00:04:53.019552,15.34402268,.00011916,53.1596,106.2326,72.1439,287.9693,0,U,66949,999,3555,.554958E-3,.18421E-3,0
STARLINK-36111,2025-286AB,2026-07-19T03:09:26.825472,15.34398439,.00014139,53.1586,105.6046,94.2390,265.8775,0,U,66950,999,3557,.33041674E-3,.10803E-3,0
STARLINK-35999,2025-286AC,2026-07-19T00:56:23.341056,15.34397886,.00012696,53.1577,106.4513,95.7168,264.3979,0,U,66951,999,3555,.19017582E-3,.6054E-4,0
STARLINK-36122,2025-286AD,2026-07-19T03:39:44.678016,15.34399012,.00013139,53.1581,105.7390,86.5140,273.6013,0,U,66952,999,3557,.30319869E-3,.9881E-4,0
HULIANWANG DIGUI-114,2025-287A,2026-07-19T04:10:54.645312,13.24413660,.00022769,86.4926,271.5587,96.7368,263.4025,0,U,66953,999,2957,.39956702E-4,.32E-6,0
HULIANWANG DIGUI-115,2025-287B,2026-07-19T05:48:26.216640,13.24401130,.0002547,86.4942,271.5656,93.8399,266.3027,0,U,66954,999,2958,.68427777E-4,.44E-6,0
HULIANWANG DIGUI-116,2025-287C,2026-07-19T05:37:57.117504,13.24413311,.00023525,86.4881,271.4262,94.6832,265.4571,0,U,66955,999,2958,.91142163E-4,.54E-6,0
HULIANWANG DIGUI-117,2025-287D,2026-07-19T05:27:07.265088,13.24412955,.00008266,86.4943,271.5599,70.2617,289.8606,0,U,66956,999,2958,.10427773E-3,.59E-6,0
HULIANWANG DIGUI-118,2025-287E,2026-07-19T05:16:13.769184,13.24412377,.00023229,86.4918,271.5022,96.4719,263.6680,0,U,66957,999,2958,.9403757E-4,.55E-6,0
STARLINK-35887,2025-288A,2026-07-19T03:34:15.070656,15.27584341,.00014147,43.0000,0.9388,271.8146,88.2544,0,U,66959,999,3539,.18874918E-3,.4936E-4,0
STARLINK-35879,2025-288B,2026-07-19T03:54:36.554976,15.27585697,.00015181,43.0025,1.0413,265.9789,94.0889,0,U,66960,999,3539,.34397938E-3,.9217E-4,0
STARLINK-35761,2025-288C,2026-07-17T19:41:31.111008,15.27589700,.00015968,42.9993,8.1650,269.0907,90.9762,0,U,66961,999,3519,.33020313E-3,.8838E-4,0
STARLINK-35874,2025-288D,2026-07-18T20:42:42.753312,15.27576646,.00016111,43.0018,3.0903,274.8554,85.2113,0,U,66962,999,3534,.54226325E-3,.14688E-3,0
STARLINK-36133,2025-288E,2026-07-19T03:56:27.464928,15.27581250,.00008964,43.0013,1.0493,267.5605,92.5144,0,U,66963,999,3539,.37055947E-4,.758E-5,0
